CCSDS_OMM_VERS = 2.0
CREATION_DATE  = 
ORIGINATOR     = 

OBJECT_NAME    = STARLINK-36616
OBJECT_ID      = 2026-022AA
CENTER_NAME    = EARTH
REF_FRAME      = TEME
TIME_SYSTEM    = UTC
MEAN_ELEMENT_THEORY = SGP/SGP4

EPOCH          = 2026-02-12T22:00:03.000096
MEAN_MOTION    = 15.88718181
ECCENTRICITY   = .00015364
INCLINATION    = 97.2790
RA_OF_ASC_NODE = 76.6880
ARG_OF_PERICENTER = 81.4659
MEAN_ANOMALY   = 154.2700

EPHEMERIS_TYPE = 0
CLASSIFICATION_TYPE = U
NORAD_CAT_ID   = 67672
ELEMENT_SET_NO = 999
REV_AT_EPOCH   = 291
BSTAR          = -.6491463E-2
MEAN_MOTION_DOT = -.159388E-1
MEAN_MOTION_DDOT = 0

CCSDS_OMM_VERS = 2.0
CREATION_DATE  = 
ORIGINATOR     = 

OBJECT_NAME    = COSMOS 2600
OBJECT_ID      = 2026-023A
CENTER_NAME    = EARTH
REF_FRAME      = TEME
TIME_SYSTEM    = UTC
MEAN_ELEMENT_THEORY = SGP/SGP4

EPOCH          = 2026-02-12T22:24:07.346304
MEAN_MOTION    = 15.82039492
ECCENTRICITY   = .00018943
INCLINATION    = 96.6495
RA_OF_ASC_NODE = 120.3520
ARG_OF_PERICENTER = 65.4066
MEAN_ANOMALY   = 294.7402

EPHEMERIS_TYPE = 0
CLASSIFICATION_TYPE = U
NORAD_CAT_ID   = 67674
ELEMENT_SET_NO = 999
REV_AT_EPOCH   = 113
BSTAR          = .36465653E-3
MEAN_MOTION_DOT = .74378E-3
MEAN_MOTION_DDOT = 0

CCSDS_OMM_VERS = 2.0
CREATION_DATE  = 
ORIGINATOR     = 

OBJECT_NAME    = 2026-023B
OBJECT_ID      = 2026-023B
CENTER_NAME    = EARTH
REF_FRAME      = TEME
TIME_SYSTEM    = UTC
MEAN_ELEMENT_THEORY = SGP/SGP4

EPOCH          = 2026-02-12T22:40:35.923008
MEAN_MOTION    = 15.22367009
ECCENTRICITY   = .00174405
INCLINATION    = 96.6411
RA_OF_ASC_NODE = 119.7627
ARG_OF_PERICENTER = 219.2311
MEAN_ANOMALY   = 140.7664

EPHEMERIS_TYPE = 0
CLASSIFICATION_TYPE = U
NORAD_CAT_ID   = 67675
ELEMENT_SET_NO = 999
REV_AT_EPOCH   = 109
BSTAR          = .46033892E-3
MEAN_MOTION_DOT = .10615E-3
MEAN_MOTION_DDOT = 0

CCSDS_OMM_VERS = 2.0
CREATION_DATE  = 
ORIGINATOR     = 

OBJECT_NAME    = 2026-023C
OBJECT_ID      = 2026-023C
CENTER_NAME    = EARTH
REF_FRAME      = TEME
TIME_SYSTEM    = UTC
MEAN_ELEMENT_THEORY = SGP/SGP4

EPOCH          = 2026-02-12T22:40:14.705760
MEAN_MOTION    = 15.22431824
ECCENTRICITY   = .00186439
INCLINATION    = 96.6446
RA_OF_ASC_NODE = 119.7745
ARG_OF_PERICENTER = 208.6436
MEAN_ANOMALY   = 151.3780

EPHEMERIS_TYPE = 0
CLASSIFICATION_TYPE = U
NORAD_CAT_ID   = 67676
ELEMENT_SET_NO = 999
REV_AT_EPOCH   = 125
BSTAR          = .55482798E-3
MEAN_MOTION_DOT = .12841E-3
MEAN_MOTION_DDOT = 0

CCSDS_OMM_VERS = 2.0
CREATION_DATE  = 
ORIGINATOR     = 

OBJECT_NAME    = 2026-023D
OBJECT_ID      = 2026-023D
CENTER_NAME    = EARTH
REF_FRAME      = TEME
TIME_SYSTEM    = UTC
MEAN_ELEMENT_THEORY = SGP/SGP4

EPOCH          = 2026-02-12T22:40:58.337760
MEAN_MOTION    = 15.22309552
ECCENTRICITY   = .00187605
INCLINATION    = 96.6477
RA_OF_ASC_NODE = 119.7572
ARG_OF_PERICENTER = 214.0076
MEAN_ANOMALY   = 145.9962

EPHEMERIS_TYPE = 0
CLASSIFICATION_TYPE = U
NORAD_CAT_ID   = 67677
ELEMENT_SET_NO = 999
REV_AT_EPOCH   = 108
BSTAR          = .49127811E-3
MEAN_MOTION_DOT = .11321E-3
MEAN_MOTION_DDOT = 0

CCSDS_OMM_VERS = 2.0
CREATION_DATE  = 
ORIGINATOR     = 

OBJECT_NAME    = 2026-023E
OBJECT_ID      = 2026-023E
CENTER_NAME    = EARTH
REF_FRAME      = TEME
TIME_SYSTEM    = UTC
MEAN_ELEMENT_THEORY = SGP/SGP4

EPOCH          = 2026-02-12T22:40:26.488128
MEAN_MOTION    = 15.22403085
ECCENTRICITY   = .00186308
INCLINATION    = 96.6370
RA_OF_ASC_NODE = 119.7637
ARG_OF_PERICENTER = 213.3075
MEAN_ANOMALY   = 146.6992

EPHEMERIS_TYPE = 0
CLASSIFICATION_TYPE = U
NORAD_CAT_ID   = 67678
ELEMENT_SET_NO = 999
REV_AT_EPOCH   = 108
BSTAR          = .56891071E-3
MEAN_MOTION_DOT = .13158E-3
MEAN_MOTION_DDOT = 0

CCSDS_OMM_VERS = 2.0
CREATION_DATE  = 
ORIGINATOR     = 

OBJECT_NAME    = 2026-023F
OBJECT_ID      = 2026-023F
CENTER_NAME    = EARTH
REF_FRAME      = TEME
TIME_SYSTEM    = UTC
MEAN_ELEMENT_THEORY = SGP/SGP4

EPOCH          = 2026-02-12T22:39:27.470880
MEAN_MOTION    = 15.22531629
ECCENTRICITY   = .00205596
INCLINATION    = 96.6376
RA_OF_ASC_NODE = 122.2600
ARG_OF_PERICENTER = 207.7884
MEAN_ANOMALY   = 152.2258

EPHEMERIS_TYPE = 0
CLASSIFICATION_TYPE = U
NORAD_CAT_ID   = 67679
ELEMENT_SET_NO = 999
REV_AT_EPOCH   = 107
BSTAR          = .52526702E-3
MEAN_MOTION_DOT = .12202E-3
MEAN_MOTION_DDOT = 0

CCSDS_OMM_VERS = 2.0
CREATION_DATE  = 
ORIGINATOR     = 

OBJECT_NAME    = 2026-023G
OBJECT_ID      = 2026-023G
CENTER_NAME    = EARTH
REF_FRAME      = TEME
TIME_SYSTEM    = UTC
MEAN_ELEMENT_THEORY = SGP/SGP4

EPOCH          = 2026-02-11T18:16:07.603104
MEAN_MOTION    = 15.22461471
ECCENTRICITY   = .00219813
INCLINATION    = 96.6308
RA_OF_ASC_NODE = 121.2169
ARG_OF_PERICENTER = 208.3069
MEAN_ANOMALY   = 151.6977

EPHEMERIS_TYPE = 0
CLASSIFICATION_TYPE = U
NORAD_CAT_ID   = 67680
ELEMENT_SET_NO = 999
REV_AT_EPOCH   = 89
BSTAR          = .18544454E-3
MEAN_MOTION_DOT = .426E-4
MEAN_MOTION_DDOT = 0

CCSDS_OMM_VERS = 2.0
CREATION_DATE  = 
ORIGINATOR     = 

OBJECT_NAME    = 2026-023H
OBJECT_ID      = 2026-023H
CENTER_NAME    = EARTH
REF_FRAME      = TEME
TIME_SYSTEM    = UTC
MEAN_ELEMENT_THEORY = SGP/SGP4

EPOCH          = 2026-02-11T18:15:54.484128
MEAN_MOTION    = 15.22485070
ECCENTRICITY   = .0021935
INCLINATION    = 96.6434
RA_OF_ASC_NODE = 121.2090
ARG_OF_PERICENTER = 207.5112
MEAN_ANOMALY   = 152.4967

EPHEMERIS_TYPE = 0
CLASSIFICATION_TYPE = U
NORAD_CAT_ID   = 67681
ELEMENT_SET_NO = 999
REV_AT_EPOCH   = 89
BSTAR          = .13313E-3
MEAN_MOTION_DOT = .3043E-4
MEAN_MOTION_DDOT = 0

CCSDS_OMM_VERS = 2.0
CREATION_DATE  = 
ORIGINATOR     = 

OBJECT_NAME    = 2026-023J
OBJECT_ID      = 2026-023J
CENTER_NAME    = EARTH
REF_FRAME      = TEME
TIME_SYSTEM    = UTC
MEAN_ELEMENT_THEORY = SGP/SGP4

EPOCH          = 2026-02-12T11:36:49.416192
MEAN_MOTION    = 15.22559272
ECCENTRICITY   = .00223262
INCLINATION    = 96.6404
RA_OF_ASC_NODE = 121.8631
ARG_OF_PERICENTER = 202.1000
MEAN_ANOMALY   = 157.9278

EPHEMERIS_TYPE = 0
CLASSIFICATION_TYPE = U
NORAD_CAT_ID   = 67682
ELEMENT_SET_NO = 999
REV_AT_EPOCH   = 100
BSTAR          = .6592174E-3
MEAN_MOTION_DOT = .15363E-3
MEAN_MOTION_DDOT = 0

CCSDS_OMM_VERS = 2.0
CREATION_DATE  = 
ORIGINATOR     = 

OBJECT_NAME    = ISS OBJECT XZ
OBJECT_ID      = 1998-067XZ
CENTER_NAME    = EARTH
REF_FRAME      = TEME
TIME_SYSTEM    = UTC
MEAN_ELEMENT_THEORY = SGP/SGP4

EPOCH          = 2026-02-12T22:01:44.016384
MEAN_MOTION    = 15.49816636
ECCENTRICITY   = .00107334
INCLINATION    = 51.6301
RA_OF_ASC_NODE = 194.7409
ARG_OF_PERICENTER = 106.0151
MEAN_ANOMALY   = 254.2021

EPHEMERIS_TYPE = 0
CLASSIFICATION_TYPE = U
NORAD_CAT_ID   = 67683
ELEMENT_SET_NO = 999
REV_AT_EPOCH   = 94
BSTAR          = .64829976E-3
MEAN_MOTION_DOT = .36548E-3
MEAN_MOTION_DDOT = 0

CCSDS_OMM_VERS = 2.0
CREATION_DATE  = 
ORIGINATOR     = 

OBJECT_NAME    = GXIBA-1
OBJECT_ID      = 1998-067YA
CENTER_NAME    = EARTH
REF_FRAME      = TEME
TIME_SYSTEM    = UTC
MEAN_ELEMENT_THEORY = SGP/SGP4

EPOCH          = 2026-02-12T20:25:10.881696
MEAN_MOTION    = 15.50533963
ECCENTRICITY   = .00125835
INCLINATION    = 51.6297
RA_OF_ASC_NODE = 195.0439
ARG_OF_PERICENTER = 100.5958
MEAN_ANOMALY   = 259.6449

EPHEMERIS_TYPE = 0
CLASSIFICATION_TYPE = U
NORAD_CAT_ID   = 67684
ELEMENT_SET_NO = 999
REV_AT_EPOCH   = 93
BSTAR          = .10500571E-2
MEAN_MOTION_DOT = .61267E-3
MEAN_MOTION_DDOT = 0

