STARLINK-36616          
1 67672U 26022AA  26043.91670139 -.01593880  00000+0 -64915-2 0  9993
2 67672  97.2790  76.6880 0001536  81.4659 154.2700 15.88718181  2916
COSMOS 2600             
1 67674U 26023A   26043.93341836  .00074378  00000+0  36466-3 0  9991
2 67674  96.6495 120.3520 0001894  65.4066 294.7402 15.82039492  1139
2026-023B               
1 67675U 26023B   26043.94486022  .00010615  00000+0  46034-3 0  9996
2 67675  96.6411 119.7627 0017440 219.2311 140.7664 15.22367009  1091
2026-023C               
1 67676U 26023C   26043.94461465  .00012841  00000+0  55483-3 0  9992
2 67676  96.6446 119.7745 0018643 208.6436 151.3780 15.22431824  1259
2026-023D               
1 67677U 26023D   26043.94511965  .00011321  00000+0  49128-3 0  9995
2 67677  96.6477 119.7572 0018760 214.0076 145.9962 15.22309552  1087
2026-023E               
1 67678U 26023E   26043.94475102  .00013158  00000+0  56891-3 0  9993
2 67678  96.6370 119.7637 0018630 213.3075 146.6992 15.22403085  1086
2026-023F               
1 67679U 26023F   26043.94406795  .00012202  00000+0  52527-3 0  9997
2 67679  96.6376 122.2600 0020559 207.7884 152.2258 15.22531629  1073
2026-023G               
1 67680U 26023G   26042.76119911  .00004260  00000+0  18544-3 0  9995
2 67680  96.6308 121.2169 0021981 208.3069 151.6977 15.22461471   898
2026-023H               
1 67681U 26023H   26042.76104727  .00003043  00000+0  13313-3 0  9992
2 67681  96.6434 121.2090 0021935 207.5112 152.4967 15.22485070   890
2026-023J               
1 67682U 26023J   26043.48390528  .00015363  00000+0  65922-3 0  9990
2 67682  96.6404 121.8631 0022326 202.1000 157.9278 15.22559272  1002
ISS OBJECT XZ           
1 67683U 98067XZ  26043.91787056  .00036548  00000+0  64830-3 0  9997
2 67683  51.6301 194.7409 0010733 106.0151 254.2021 15.49816636   948
GXIBA-1                 
1 67684U 98067YA  26043.85082039  .00061267  00000+0  10501-2 0  9991
2 67684  51.6297 195.0439 0012583 100.5958 259.6449 15.50533963   932
